OBJECT_NAME,OBJECT_ID,EPOCH,MEAN_MOTION,ECCENTRICITY,INCLINATION,RA_OF_ASC_NODE,ARG_OF_PERICENTER,MEAN_ANOMALY,EPHEMERIS_TYPE,CLASSIFICATION_TYPE,NORAD_CAT_ID,ELEMENT_SET_NO,REV_AT_EPOCH,BSTAR,MEAN_MOTION_DOT,MEAN_MOTION_DDOT
STARLINK-33732,2025-076G,2025-05-08T06:00:02.000160,15.59479266,.0001368,42.9997,251.6294,260.3281,328.3940,0,U,63575,999,482,-.19897E-1,-.1451073E-1,0
STARLINK-33800,2025-076H,2025-05-08T06:00:02.000160,15.59479042,.0001358,42.9997,251.6191,260.3815,332.1749,0,U,63576,999,503,-.19893E-1,-.1450795E-1,0
STARLINK-33632,2025-076J,2025-05-08T06:00:02.000160,15.59479454,.0001519,42.9998,251.6046,262.7291,335.5781,0,U,63577,999,501,-.19897E-1,-.1451152E-1,0
STARLINK-33719,2025-076K,2025-05-08T06:00:02.000160,15.59478757,.0001315,42.9996,251.6148,257.0016,337.4711,0,U,63578,999,498,-.19887E-1,-.145037E-1,0
STARLINK-33755,2025-076L,2025-04-30T22:13:26.757696,15.97846496,.0004065,43.0024,294.9912,325.0239,152.6343,0,U,63579,999,388,.1E-3,.44626E-3,.9304E-5
STARLINK-33752,2025-076M,2025-05-08T06:00:02.000160,15.59478448,.0001387,42.9997,251.5993,256.4473,343.7768,0,U,63580,999,493,-.1988E-1,-.1449929E-1,0
STARLINK-33714,2025-076N,2025-05-08T06:00:02.000160,15.59479636,.0001428,42.9996,251.5942,254.9227,347.2183,0,U,63581,999,493,-.19895E-1,-.1450988E-1,0
STARLINK-33814,2025-076P,2025-05-07T22:00:01.999584,15.60556867,.0001161,42.9995,253.5681,270.9772,258.7880,0,U,63582,999,485,-.19247E-1,-.1462006E-1,0
STARLINK-33817,2025-076Q,2025-05-08T06:00:02.000160,15.59479440,.0001297,42.9997,251.5848,255.0069,350.9676,0,U,63583,999,482,-.19882E-1,-.1450069E-1,0
STARLINK-33820,2025-076R,2025-05-08T06:00:02.000160,15.59479059,.0001474,42.9995,251.5707,255.4021,356.3245,0,U,63584,999,503,-.19883E-1,-.1450196E-1,0
STARLINK-33813,2025-076S,2025-05-08T06:00:02.000160,15.59479188,.0001331,42.9996,251.5813,254.7246,353.1672,0,U,63585,999,486,-.19878E-1,-.144981E-1,0
STARLINK-33834,2025-076T,2025-05-08T06:00:02.000160,15.59478766,.0001425,42.9996,251.5646,254.4346,359.2089,0,U,63586,999,503,-.19873E-1,-.1449505E-1,0
STARLINK-33830,2025-076U,2025-05-08T06:00:02.000160,15.59478703,.0001443,42.9997,251.5546,260.0905,357.3874,0,U,63587,999,501,-.19872E-1,-.1449445E-1,0
STARLINK-33651,2025-076V,2025-05-08T06:00:02.000160,15.59478500,.000135,42.9996,251.5611,254.1960,1.3645,0,U,63588,999,503,-.19863E-1,-.1448804E-1,0
STARLINK-33788,2025-076W,2025-05-07T22:00:01.999584,15.60557187,.000117,42.9996,253.5542,270.6707,264.8456,0,U,63589,999,485,-.19254E-1,-.1462503E-1,0
STARLINK-33805,2025-076X,2025-05-08T06:00:02.000160,15.59478749,.0001468,42.9996,251.5507,253.6396,5.7551,0,U,63590,999,498,-.19871E-1,-.1449393E-1,0
STARLINK-33702,2025-076Y,2025-05-08T06:00:02.000160,15.59478527,.0001374,42.9996,251.5462,253.7518,7.5598,0,U,63591,999,501,-.19861E-1,-.1448685E-1,0
STARLINK-33666,2025-076Z,2025-05-08T06:00:02.000160,15.59478382,.0001556,42.9996,251.5418,257.3713,5.8580,0,U,63592,999,501,-.19869E-1,-.1449285E-1,0
STARLINK-33723,2025-076AA,2025-05-08T06:00:02.000160,15.59477011,.0001469,42.9996,251.5370,259.3697,5.7769,0,U,63593,999,482,-.19852E-1,-.1448064E-1,0
STARLINK-33791,2025-076AB,2025-05-08T06:00:02.000160,15.59477073,.0001418,42.9996,251.5305,260.7464,6.3179,0,U,63594,999,482,-.1985E-1,-.1447913E-1,0
STARLINK-33831,2025-076AC,2025-05-06T01:48:04.374432,15.78221227,.0003116,42.9964,263.3218,15.5955,344.5011,0,U,63595,999,473,-.35728E-3,-.63259E-3,0
SHIYAN-27 A,2025-078A,2025-05-08T05:46:56.222400,13.57198970,.0000895,99.6917,136.5509,89.2067,270.9174,0,U,63599,999,260,.16467E-3,.73E-6,0
SHIYAN-27 B,2025-078B,2025-05-07T21:49:17.115168,13.57199522,.0000967,99.6929,136.1437,88.6945,271.4304,0,U,63600,999,255,.1452E-3,.59E-6,0
SHIYAN-27 C,2025-078C,2025-05-07T22:24:39.389472,13.57198389,.000095,99.6925,136.2815,89.6555,270.4692,0,U,63601,999,256,.1236E-3,.44E-6,0
SHIYAN-27 D,2025-078D,2025-05-08T05:11:34.330848,13.57198742,.0000933,99.6945,136.4224,91.1186,269.0059,0,U,63602,999,259,.13129E-3,.49E-6,0
SHIYAN-27 E,2025-078E,2025-05-07T23:17:39.880608,13.57199312,.0000952,99.6911,136.2276,93.1105,267.0142,0,U,63603,999,256,.12551E-3,.45E-6,0
SHIYAN-27 F,2025-078F,2025-05-08T06:04:35.647104,13.57198270,.0000987,99.6919,136.5354,89.0377,271.0875,0,U,63604,999,260,.15402E-3,.66E-6,0
DRAGON CRS-32,2025-080A,2025-05-07T12:15:46.608768,15.49392895,.0002315,51.6346,148.5519,86.8352,273.2901,0,U,63628,999,50854,.14445E-3,.7625E-4,0
