STARLINK-33732          
1 63575U 25076G   25128.25002315 -.01451073  00000+0 -19897-1 0  9999
2 63575  42.9997 251.6294 0001368 260.3281 328.3940 15.59479266  4824
STARLINK-33800          
1 63576U 25076H   25128.25002315 -.01450795  00000+0 -19893-1 0  9996
2 63576  42.9997 251.6191 0001358 260.3815 332.1749 15.59479042  5039
STARLINK-33632          
1 63577U 25076J   25128.25002315 -.01451152  00000+0 -19897-1 0  9999
2 63577  42.9998 251.6046 0001519 262.7291 335.5781 15.59479454  5011
STARLINK-33719          
1 63578U 25076K   25128.25002315 -.01450370  00000+0 -19887-1 0  9990
2 63578  42.9996 251.6148 0001315 257.0016 337.4711 15.59478757  4983
STARLINK-33755          
1 63579U 25076L   25120.92600414  .00044626  93040-5  10000-3 0  9993
2 63579  43.0024 294.9912 0004065 325.0239 152.6343 15.97846496  3882
STARLINK-33752          
1 63580U 25076M   25128.25002315 -.01449929  00000+0 -19880-1 0  9994
2 63580  42.9997 251.5993 0001387 256.4473 343.7768 15.59478448  4937
STARLINK-33714          
1 63581U 25076N   25128.25002315 -.01450988  00000+0 -19895-1 0  9998
2 63581  42.9996 251.5942 0001428 254.9227 347.2183 15.59479636  4937
STARLINK-33814          
1 63582U 25076P   25127.91668981 -.01462006  00000+0 -19247-1 0  9993
2 63582  42.9995 253.5681 0001161 270.9772 258.7880 15.60556867  4851
STARLINK-33817          
1 63583U 25076Q   25128.25002315 -.01450069  00000+0 -19882-1 0  9996
2 63583  42.9997 251.5848 0001297 255.0069 350.9676 15.59479440  4824
STARLINK-33820          
1 63584U 25076R   25128.25002315 -.01450196  00000+0 -19883-1 0  9999
2 63584  42.9995 251.5707 0001474 255.4021 356.3245 15.59479059  5038
STARLINK-33813          
1 63585U 25076S   25128.25002315 -.01449810  00000+0 -19878-1 0  9995
2 63585  42.9996 251.5813 0001331 254.7246 353.1672 15.59479188  4863
STARLINK-33834          
1 63586U 25076T   25128.25002315 -.01449505  00000+0 -19873-1 0  9992
2 63586  42.9996 251.5646 0001425 254.4346 359.2089 15.59478766  5030
STARLINK-33830          
1 63587U 25076U   25128.25002315 -.01449445  00000+0 -19872-1 0  9995
2 63587  42.9997 251.5546 0001443 260.0905 357.3874 15.59478703  5015
STARLINK-33651          
1 63588U 25076V   25128.25002315 -.01448804  00000+0 -19863-1 0  9994
2 63588  42.9996 251.5611 0001350 254.1960   1.3645 15.59478500  5039
STARLINK-33788          
1 63589U 25076W   25127.91668981 -.01462503  00000+0 -19254-1 0  9990
2 63589  42.9996 253.5542 0001170 270.6707 264.8456 15.60557187  4853
STARLINK-33805          
1 63590U 25076X   25128.25002315 -.01449393  00000+0 -19871-1 0  9990
2 63590  42.9996 251.5507 0001468 253.6396   5.7551 15.59478749  4985
STARLINK-33702          
1 63591U 25076Y   25128.25002315 -.01448685  00000+0 -19861-1 0  9993
2 63591  42.9996 251.5462 0001374 253.7518   7.5598 15.59478527  5019
STARLINK-33666          
1 63592U 25076Z   25128.25002315 -.01449285  00000+0 -19869-1 0  9999
2 63592  42.9996 251.5418 0001556 257.3713   5.8580 15.59478382  5011
STARLINK-33723          
1 63593U 25076AA  25128.25002315 -.01448064  00000+0 -19852-1 0  9996
2 63593  42.9996 251.5370 0001469 259.3697   5.7769 15.59477011  4829
STARLINK-33791          
1 63594U 25076AB  25128.25002315 -.01447913  00000+0 -19850-1 0  9997
2 63594  42.9996 251.5305 0001418 260.7464   6.3179 15.59477073  4820
STARLINK-33831          
1 63595U 25076AC  25126.07505063 -.00063259  00000+0 -35728-3 0  9994
2 63595  42.9964 263.3218 0003116  15.5955 344.5011 15.78221227  4739
SHIYAN-27 A             
1 63599U 25078A   25128.24092850  .00000073  00000+0  16467-3 0  9998
2 63599  99.6917 136.5509 0000895  89.2067 270.9174 13.57198970  2606
SHIYAN-27 B             
1 63600U 25078B   25127.90922587  .00000059  00000+0  14520-3 0  9994
2 63600  99.6929 136.1437 0000967  88.6945 271.4304 13.57199522  2555
SHIYAN-27 C             
1 63601U 25078C   25127.93378923  .00000044  00000+0  12360-3 0  9991
2 63601  99.6925 136.2815 0000950  89.6555 270.4692 13.57198389  2563
SHIYAN-27 D             
1 63602U 25078D   25128.21636957  .00000049  00000+0  13129-3 0  9997
2 63602  99.6945 136.4224 0000933  91.1186 269.0059 13.57198742  2598
SHIYAN-27 E             
1 63603U 25078E   25127.97060047  .00000045  00000+0  12551-3 0  9995
2 63603  99.6911 136.2276 0000952  93.1105 267.0142 13.57199312  2563
SHIYAN-27 F             
1 63604U 25078F   25128.25319036  .00000066  00000+0  15402-3 0  9994
2 63604  99.6919 136.5354 0000987  89.0377 271.0875 13.57198270  2600
DRAGON CRS-32           
1 63628U 25080A   25127.51095612  .00007625  00000+0  14445-3 0  9996
2 63628  51.6346 148.5519 0002315  86.8352 273.2901 15.49392895508549
